{
  "type": "FeatureCollection",
  "features": [
    {
      "type": "Feature",
      "properties": {
        "norad_id": 35616,
        "name": "IRIDIUM 33 DEB",
        "group": "iridium-33-debris",
        "lat": 78.19464339812109,
        "lon": 142.88842142000854,
        "alt_km": 608.3542723406308,
        "timestamp": "2025-12-23T22:42:33.370988+00:00",
        "meta_object_name": "IRIDIUM 33 DEB",
        "meta_object_id": "1997-051QN",
        "meta_epoch": "2025-12-21T16:46:45.287328",
        "meta_mean_motion": 14.82015021,
        "meta_eccentricity": 0.00114093,
        "meta_inclination": 86.3545,
        "meta_ra_of_asc_node": 341.6744,
        "meta_arg_of_pericenter": 134.0095,
        "meta_mean_anomaly": 226.2069,
        "meta_ephemeris_type": 0,
        "meta_classification_type": "U",
        "meta_norad_cat_id": 35616,
        "meta_element_set_no": 999,
        "meta_rev_at_epoch": 87707,
        "meta_bstar": 0.0013754653,
        "meta_mean_motion_dot": 0.00010957,
        "meta_mean_motion_ddot": 0,
        "tle_line1": "1 35616U 97051QN  25355.69913527  .00010957  00000+0  13755-2 0  9999",
        "tle_line2": "2 35616  86.3545 341.6744 0011409 134.0095 226.2069 14.82015021877070"
      },
      "geometry": {
        "type": "Point",
        "coordinates": [
          142.88842142000854,
          78.19464339812109
        ]
      }
    },
    {
      "type": "Feature",
      "properties": {
        "norad_id": 35618,
        "name": "IRIDIUM 33 DEB",
        "group": "iridium-33-debris",
        "lat": 65.84849054275773,
        "lon": 160.40096597914774,
        "alt_km": 724.5893225427644,
        "timestamp": "2025-12-23T22:42:33.370998+00:00",
        "meta_object_name": "IRIDIUM 33 DEB",
        "meta_object_id": "1997-051QQ",
        "meta_epoch": "2025-12-21T17:16:24.492288",
        "meta_mean_motion": 14.52331103,
        "meta_eccentricity": 0.00284149,
        "meta_inclination": 86.341,
        "meta_ra_of_asc_node": 349.5786,
        "meta_arg_of_pericenter": 351.4344,
        "meta_mean_anomaly": 8.6373,
        "meta_ephemeris_type": 0,
        "meta_classification_type": "U",
        "meta_norad_cat_id": 35618,
        "meta_element_set_no": 999,
        "meta_rev_at_epoch": 65524,
        "meta_bstar": 0.00039049847,
        "meta_mean_motion_dot": 1.617e-05,
        "meta_mean_motion_ddot": 0,
        "tle_line1": "1 35618U 97051QQ  25355.71972792  .00001617  00000+0  39050-3 0  9993",
        "tle_line2": "2 35618  86.3410 349.5786 0028414 351.4344   8.6373 14.52331103655244"
      },
      "geometry": {
        "type": "Point",
        "coordinates": [
          160.40096597914774,
          65.84849054275773
        ]
      }
    },
    {
      "type": "Feature",
      "properties": {
        "norad_id": 35620,
        "name": "IRIDIUM 33 DEB",
        "group": "iridium-33-debris",
        "lat": -68.93821727509145,
        "lon": 42.16423463907532,
        "alt_km": 683.1280066530708,
        "timestamp": "2025-12-23T22:42:33.371009+00:00",
        "meta_object_name": "IRIDIUM 33 DEB",
        "meta_object_id": "1997-051QS",
        "meta_epoch": "2025-12-22T20:30:28.552032",
        "meta_mean_motion": 14.38347661,
        "meta_eccentricity": 0.01386054,
        "meta_inclination": 86.3896,
        "meta_ra_of_asc_node": 213.1884,
        "meta_arg_of_pericenter": 225.2631,
        "meta_mean_anomaly": 133.722,
        "meta_ephemeris_type": 0,
        "meta_classification_type": "U",
        "meta_norad_cat_id": 35620,
        "meta_element_set_no": 999,
        "meta_rev_at_epoch": 60111,
        "meta_bstar": 0.0048145094,
        "meta_mean_motion_dot": 0.00016436,
        "meta_mean_motion_ddot": 0,
        "tle_line1": "1 35620U 97051QS  25356.85449713  .00016436  00000+0  48145-2 0  9993",
        "tle_line2": "2 35620  86.3896 213.1884 0138605 225.2631 133.7220 14.38347661601119"
      },
      "geometry": {
        "type": "Point",
        "coordinates": [
          42.16423463907532,
          -68.93821727509145
        ]
      }
    },
    {
      "type": "Feature",
      "properties": {
        "norad_id": 35622,
        "name": "IRIDIUM 33 DEB",
        "group": "iridium-33-debris",
        "lat": 23.85385143345316,
        "lon": 76.39296824998372,
        "alt_km": 550.1968129520092,
        "timestamp": "2025-12-23T22:42:33.371019+00:00",
        "meta_object_name": "IRIDIUM 33 DEB",
        "meta_object_id": "1997-051QU",
        "meta_epoch": "2025-12-22T17:26:20.934816",
        "meta_mean_motion": 15.05728881,
        "meta_eccentricity": 0.00037836,
        "meta_inclination": 86.2011,
        "meta_ra_of_asc_node": 258.6786,
        "meta_arg_of_pericenter": 291.3821,
        "meta_mean_anomaly": 97.8635,
        "meta_ephemeris_type": 0,
        "meta_classification_type": "U",
        "meta_norad_cat_id": 35622,
        "meta_element_set_no": 999,
        "meta_rev_at_epoch": 87510,
        "meta_bstar": 0.0037158525,
        "meta_mean_motion_dot": 0.00054114,
        "meta_mean_motion_ddot": 0,
        "tle_line1": "1 35622U 97051QU  25356.72663119  .00054114  00000+0  37159-2 0  9997",
        "tle_line2": "2 35622  86.2011 258.6786 0003783 291.3821  97.8635 15.05728881875101"
      },
      "geometry": {
        "type": "Point",
        "coordinates": [
          76.39296824998372,
          23.85385143345316
        ]
      }
    },
    {
      "type": "Feature",
      "properties": {
        "norad_id": 35628,
        "name": "IRIDIUM 33 DEB",
        "group": "iridium-33-debris",
        "lat": -86.10032757079323,
        "lon": -106.72330795417227,
        "alt_km": 670.1311850002594,
        "timestamp": "2025-12-23T22:42:33.371029+00:00",
        "meta_object_name": "IRIDIUM 33 DEB",
        "meta_object_id": "1997-051RA",
        "meta_epoch": "2025-12-20T06:45:55.793664",
        "meta_mean_motion": 14.67680924,
        "meta_eccentricity": 0.00096368,
        "meta_inclination": 86.3562,
        "meta_ra_of_asc_node": 5.7112,
        "meta_arg_of_pericenter": 314.2717,
        "meta_mean_anomaly": 45.7705,
        "meta_ephemeris_type": 0,
        "meta_classification_type": "U",
        "meta_norad_cat_id": 35628,
        "meta_element_set_no": 999,
        "meta_rev_at_epoch": 86557,
        "meta_bstar": 0.00085133469,
        "meta_mean_motion_dot": 4.868e-05,
        "meta_mean_motion_ddot": 0,
        "tle_line1": "1 35628U 97051RA  25354.28189576  .00004868  00000+0  85133-3 0  9999",
        "tle_line2": "2 35628  86.3562   5.7112 0009636 314.2717  45.7705 14.67680924865577"
      },
      "geometry": {
        "type": "Point",
        "coordinates": [
          -106.72330795417227,
          -86.10032757079323
        ]
      }
    },
    {
      "type": "Feature",
      "properties": {
        "norad_id": 35631,
        "name": "IRIDIUM 33 DEB",
        "group": "iridium-33-debris",
        "lat": 65.39026650060539,
        "lon": 24.12508525377788,
        "alt_km": 715.1583421999967,
        "timestamp": "2025-12-23T22:42:33.371064+00:00",
        "meta_object_name": "IRIDIUM 33 DEB",
        "meta_object_id": "1997-051RD",
        "meta_epoch": "2025-12-23T00:56:12.471936",
        "meta_mean_motion": 14.47337727,
        "meta_eccentricity": 0.00191219,
        "meta_inclination": 86.3657,
        "meta_ra_of_asc_node": 16.5397,
        "meta_arg_of_pericenter": 87.1919,
        "meta_mean_anomaly": 294.7675,
        "meta_ephemeris_type": 0,
        "meta_classification_type": "U",
        "meta_norad_cat_id": 35631,
        "meta_element_set_no": 999,
        "meta_rev_at_epoch": 87346,
        "meta_bstar": 0.00033499621,
        "meta_mean_motion_dot": 1.249e-05,
        "meta_mean_motion_ddot": 0,
        "tle_line1": "1 35631U 97051RD  25357.03903324  .00001249  00000+0  33500-3 0  9995",
        "tle_line2": "2 35631  86.3657  16.5397 0019121  87.1919 294.7675 14.47337727873468"
      },
      "geometry": {
        "type": "Point",
        "coordinates": [
          24.12508525377788,
          65.39026650060539
        ]
      }
    },
    {
      "type": "Feature",
      "properties": {
        "norad_id": 35680,
        "name": "IRIDIUM 33 DEB",
        "group": "iridium-33-debris",
        "lat": 56.35640429080575,
        "lon": 22.441212814813316,
        "alt_km": 924.1546571289527,
        "timestamp": "2025-12-23T22:42:33.371080+00:00",
        "meta_object_name": "IRIDIUM 33 DEB",
        "meta_object_id": "1997-051RJ",
        "meta_epoch": "2025-12-21T07:58:47.284608",
        "meta_mean_motion": 14.2104558,
        "meta_eccentricity": 0.01505558,
        "meta_inclination": 86.1025,
        "meta_ra_of_asc_node": 17.7185,
        "meta_arg_of_pericenter": 250.9856,
        "meta_mean_anomaly": 122.3959,
        "meta_ephemeris_type": 0,
        "meta_classification_type": "U",
        "meta_norad_cat_id": 35680,
        "meta_element_set_no": 999,
        "meta_rev_at_epoch": 60823,
        "meta_bstar": 0.0026505481,
        "meta_mean_motion_dot": 6.465e-05,
        "meta_mean_motion_ddot": 0,
        "tle_line1": "1 35680U 97051RJ  25355.33249172  .00006465  00000+0  26505-2 0  9995",
        "tle_line2": "2 35680  86.1025  17.7185 0150555 250.9856 122.3959 14.21045580608231"
      },
      "geometry": {
        "type": "Point",
        "coordinates": [
          22.441212814813316,
          56.35640429080575
        ]
      }
    }
  ]
}